[{"OBJECT_NAME":"ONEWEB-0500","OBJECT_ID":"2022-138F","EPOCH":"2026-03-09T17:46:05.166912","MEAN_MOTION":13.19725513,"ECCENTRICITY":0.00018002,"INCLINATION":87.923,"RA_OF_ASC_NODE":324.777,"ARG_OF_PERICENTER":78.6311,"MEAN_ANOMALY":281.5024,"EPHEMERIS_TYPE":0,"CLASSIFICATION_TYPE":"U","NORAD_CAT_ID":54118,"ELEMENT_SET_NO":999,"REV_AT_EPOCH":16371,"BSTAR":-0.00035714694,"MEAN_MOTION_DOT":-1.3e-6,"MEAN_MOTION_DDOT":0},{"OBJECT_NAME":"SCOUT A R\/B","OBJECT_ID":"1970-067B","EPOCH":"2026-03-09T22:54:58.932864","MEAN_MOTION":13.49659171,"ECCENTRICITY":0.01746933,"INCLINATION":90.0072,"RA_OF_ASC_NODE":234.1093,"ARG_OF_PERICENTER":132.7059,"MEAN_ANOMALY":341.188,"EPHEMERIS_TYPE":0,"CLASSIFICATION_TYPE":"U","NORAD_CAT_ID":4515,"ELEMENT_SET_NO":999,"REV_AT_EPOCH":73195,"BSTAR":0.00023152136,"MEAN_MOTION_DOT":1.72e-6,"MEAN_MOTION_DDOT":0}]
